{"type":"FeatureCollection","features":[{"type":"Feature","geometry":{"type":"Point","coordinates":[103.745915,1.327713]},"properties":{"name":"Jurong Data Center","h":21.0}},{"type":"Feature","geometry":{"type":"Point","coordinates":[103.701353,1.321363]},"properties":{"name":"Pepperl+Fuchs GDC","h":15.0}},{"type":"Feature","geometry":{"type":"Point","coordinates":[103.701478,1.316698]},"properties":{"name":"Telin-3 Data Centre","h":15.0}},{"type":"Feature","geometry":{"type":"Point","coordinates":[103.780307,1.443002]},"properties":{"name":"1-Net North Data Center","h":15.0}},{"type":"Feature","geometry":{"type":"Point","coordinates":[103.703018,1.317157]},"properties":{"name":"Meta Singapore Data Center","h":33.0}},{"type":"Feature","geometry":{"type":"Point","coordinates":[103.727027,1.358211]},"properties":{"name":"Data centre","h":21.0}},{"type":"Feature","geometry":{"type":"Point","coordinates":[103.78967,1.295075]},"properties":{"name":"Technopreneur Centre","h":27.0}},{"type":"Feature","geometry":{"type":"Point","coordinates":[103.790857,1.296131]},"properties":{"name":"Data centre","h":24}},{"type":"Feature","geometry":{"type":"Point","coordinates":[103.798454,1.429235]},"properties":{"name":"Global Data Singapore","h":24}},{"type":"Feature","geometry":{"type":"Point","coordinates":[103.800716,1.4501]},"properties":{"name":"SIN06 DC","h":14}},{"type":"Feature","geometry":{"type":"Point","coordinates":[103.964659,1.372513]},"properties":{"name":"STT GDC Loyang","h":18.0}},{"type":"Feature","geometry":{"type":"Point","coordinates":[103.874025,1.32329]},"properties":{"name":"Toshiba Data Dynamics","h":24}},{"type":"Feature","geometry":{"type":"Point","coordinates":[103.890285,1.349803]},"properties":{"name":"Maple Tree","h":18.0}},{"type":"Feature","geometry":{"type":"Point","coordinates":[103.87124,1.375865]},"properties":{"name":"Data centre","h":15.0}},{"type":"Feature","geometry":{"type":"Point","coordinates":[103.893241,1.339074]},"properties":{"name":"Data centre","h":21.0}},{"type":"Feature","geometry":{"type":"Point","coordinates":[103.894039,1.338612]},"properties":{"name":"Geo-Tele Centre","h":24}},{"type":"Feature","geometry":{"type":"Point","coordinates":[103.893272,1.337027]},"properties":{"name":"Deutsche Telekom Centre","h":18.0}},{"type":"Feature","geometry":{"type":"Point","coordinates":[103.894664,1.337137]},"properties":{"name":"Data centre","h":18.0}},{"type":"Feature","geometry":{"type":"Point","coordinates":[103.894228,1.332528]},"properties":{"name":"Vertex Block B","h":24.0}},{"type":"Feature","geometry":{"type":"Point","coordinates":[103.894,1.33329]},"properties":{"name":"Vertex Block A","h":24.0}},{"type":"Feature","geometry":{"type":"Point","coordinates":[103.651135,1.331857]},"properties":{"name":"Data centre","h":15.0}}]}