{"type":"FeatureCollection","features":[{"type":"Feature","geometry":{"type":"Point","coordinates":[103.750433,1.36706]},"properties":{"name":"BBDC Substation"}},{"type":"Feature","geometry":{"type":"Point","coordinates":[103.76336,1.317762]},"properties":{"name":"Clementi Substation"}},{"type":"Feature","geometry":{"type":"Point","coordinates":[103.832785,1.328832]},"properties":{"name":"Whitley Substation"}},{"type":"Feature","geometry":{"type":"Point","coordinates":[103.799745,1.272465]},"properties":{"name":"Labrador 400kV Substation"}},{"type":"Feature","geometry":{"type":"Point","coordinates":[103.838678,1.34759]},"properties":{"name":"Marymount Substation"}},{"type":"Feature","geometry":{"type":"Point","coordinates":[103.82161,1.385528]},"properties":{"name":"Tagore Substation"}},{"type":"Feature","geometry":{"type":"Point","coordinates":[103.927138,1.321603]},"properties":{"name":"Aida Substation"}},{"type":"Feature","geometry":{"type":"Point","coordinates":[103.952548,1.366286]},"properties":{"name":"Pasir Ris 66kV Substation"}},{"type":"Feature","geometry":{"type":"Point","coordinates":[103.898377,1.332761]},"properties":{"name":"Paya Lebar 400kV Substation"}},{"type":"Feature","geometry":{"type":"Point","coordinates":[103.87795,1.29786]},"properties":{"name":"Tanjong Rhu Substation"}},{"type":"Feature","geometry":{"type":"Point","coordinates":[103.853571,1.31746]},"properties":{"name":"Rangoon Road 400kV Substation"}},{"type":"Feature","geometry":{"type":"Point","coordinates":[103.892675,1.306355]},"properties":{"name":"Electrical Substation"}}]}